H1 CPF 01  gfz 2021 01 14 13  5142 tandemx   
H2 1003001  6202 36605    2021 01 14 12 59 42 2021 01 19 00 00 42   120 1 1  0 0 0
H9
10 0 59232  82062.000000  0    -726890.322   -636315.383   6809450.033
10 0 59232  82182.000000  0   -1011618.860    238895.971   6798653.849
10 0 59232  82302.000000  0   -1263375.405   1114633.759   6668396.256
10 0 59232  82422.000000  0   -1477895.184   1975001.585   6420950.779
10 0 59232  82542.000000  0   -1651835.985   2804297.371   6060639.471
10 0 59232  82662.000000  0   -1782830.602   3587300.674   5593761.741
10 0 59232  82782.000000  0   -1869517.766   4309554.218   5028490.120
10 0 59232  82902.000000  0   -1911552.071   4957636.403   4374734.034
10 0 59232  83022.000000  0   -1909591.791   5519418.381   3643970.571
10 0 59232  83142.000000  0   -1865264.974   5984299.993   2849045.517
10 0 59232  83262.000000  0   -1781114.947   6343418.567   2003947.150
10 0 59232  83382.000000  0   -1660525.176   6589826.821   1123556.914
10 0 59232  83502.000000  0   -1507624.879   6718633.860    223381.543
10 0 59232  83622.000000  0   -1327179.018   6727106.222   -680727.271
10 0 59232  83742.000000  0   -1124464.739   6614727.163  -1572862.028
10 0 59232  83862.000000  0    -905136.562   6383207.220  -2437350.564
10 0 59232  83982.000000  0    -675086.161   6036448.452  -3259037.214
10 0 59232  84102.000000  0    -440299.643   5580467.843  -4023550.218
10 0 59232  84222.000000  0    -206715.524   5023281.445  -4717552.769
10 0 59232  84342.000000  0      19913.118   4374751.221  -5328971.663
10 0 59232  84462.000000  0     234149.608   3646399.830  -5847200.477
10 0 59232  84582.000000  0     430994.481   2851196.443  -6263274.240
10 0 59232  84702.000000  0     605993.128   2003319.666  -6570012.776
10 0 59232  84822.000000  0     755329.395   1117903.723  -6762133.167
10 0 59232  84942.000000  0     875903.272    210770.462  -6836331.610
10 0 59232  85062.000000  0     965391.554   -701848.667  -6791334.083
10 0 59232  85182.000000  0    1022290.556  -1603596.852  -6627914.463
10 0 59232  85302.000000  0    1045940.715  -2478276.403  -6348881.587
10 0 59232  85422.000000  0    1036533.481  -3310132.344  -5959038.244
10 0 59232  85542.000000  0     995098.811  -4084134.257  -5465108.464
10 0 59232  85662.000000  0     923474.185  -4786247.854  -4875630.984
10 0 59232  85782.000000  0     824256.148  -5403692.408  -4200823.453
10 0 59232  85902.000000  0     700733.770  -5925181.336  -3452416.094
10 0 59232  86022.000000  0     556805.646  -6341138.766  -2643455.678
10 0 59232  86142.000000  0     396882.372  -6643887.671  -1788083.579
10 0 59232  86262.000000  0     225776.104  -6827804.997   -901289.416
10 0 59232  86382.000000  0      48579.508  -6889437.217      1354.925
99
